     2.10           G: GLONASS NAV DATA                     RINEX VERSION / TYPE
teqc  2015Jun23                         20210726 01:25:44UTCPGM / RUN BY / DATE
Linux 2.4.21-27.ELsmp|Opteron|gcc -static|Linux x86_64|=+   COMMENT
  2021     7     2    2.561137080193D-08                    CORR TO SYSTEM TIME
                                                            END OF HEADER
22 21  7  3  9 15  0.0-1.207608729601D-04-9.094947017729D-13 3.240000000000D+04
   -1.552601562500D+04-3.986730575562D-01-1.862645149231D-09 0.000000000000D+00
    1.940807470703D+04 7.520303726196D-01 0.000000000000D+00-3.000000000000D+00
    5.929334960938D+03-3.484112739563D+00-9.313225746155D-10 0.000000000000D+00
23 21  7  3  9 15  0.0-8.687376976013D-06-9.094947017729D-13 3.258000000000D+04
    7.690576171875D+02-2.052354812622D+00 0.000000000000D+00 0.000000000000D+00
    1.309966943359D+04 2.192427635193D+00 0.000000000000D+00 3.000000000000D+00
    2.185853222656D+04-1.240802764893D+00-1.862645149231D-09 0.000000000000D+00
 2 21  7  3  9 45  0.0 4.846341907978D-04 9.094947017729D-13 3.420000000000D+04
    1.378421972656D+04 7.810115814209D-01-0.000000000000D+00 0.000000000000D+00
    1.792878027344D+04 1.431363105774D+00-0.000000000000D+00-4.000000000000D+00
   -1.181286132812D+04 3.066783905029D+00 1.862645149231D-09 0.000000000000D+00
 1 21  7  3  9 45  0.0 8.177664130926D-05 0.000000000000D+00 3.420000000000D+04
    6.165855957031D+03-3.754701614380D-01-0.000000000000D+00 0.000000000000D+00
    2.319264501953D+04-1.127456665039D+00 0.000000000000D+00 1.000000000000D+00
    8.627538085938D+03 3.302115440369D+00-0.000000000000D+00 0.000000000000D+00
 8 21  7  3  9 45  0.0-5.976483225822D-05 0.000000000000D+00 3.420000000000D+04
   -3.740348632812D+03-1.019381523132D+00-0.000000000000D+00 0.000000000000D+00
    1.531858056641D+04-2.543900489807D+00 0.000000000000D+00 6.000000000000D+00
    2.011432666016D+04 1.751003265381D+00-1.862645149231D-09 0.000000000000D+00
21 21  7  3  9 45  0.0-2.210745587945D-04-2.728484105319D-12 3.420000000000D+04
   -1.686534277344D+04 1.449725151062D+00-2.793967723846D-09 0.000000000000D+00
    1.051850341797D+04-1.650918006897D+00 9.313225746155D-10 4.000000000000D+00
   -1.597716113281D+04-2.620861053467D+00 0.000000000000D+00 0.000000000000D+00
22 21  7  3  9 45  0.0-1.207636669278D-04-9.094947017729D-13 3.420000000000D+04
   -1.564194970703D+04 2.419567108154D-01-1.862645149231D-09 0.000000000000D+00
    2.020743408203D+04 1.036815643311D-01 9.313225746155D-10-3.000000000000D+00
   -4.895058593750D+02-3.601853370667D+00-0.000000000000D+00 0.000000000000D+00
23 21  7  3  9 45  0.0-8.689239621162D-06-9.094947017729D-13 3.420000000000D+04
   -2.393739257812D+03-1.446125030518D+00-0.000000000000D+00 0.000000000000D+00
    1.704758349609D+04 2.145319938660D+00 0.000000000000D+00 3.000000000000D+00
    1.880782714844D+04-2.126811027527D+00-9.313225746155D-10 0.000000000000D+00
12 21  7  3  9 45  0.0 2.422071993351D-04 2.728484105319D-12 3.528000000000D+04
    5.395642089844D+03-3.030231475830D+00-1.862645149231D-09 0.000000000000D+00
    1.122700781250D+04-3.635082244873D-01-0.000000000000D+00-1.000000000000D+00
   -2.223212109375D+04-9.163341522217D-01 1.862645149231D-09 0.000000000000D+00
 2 21  7  3 10 15  0.0 4.846369847655D-04 9.094947017729D-13 3.600000000000D+04
    1.503343359375D+04 5.641860961914D-01-0.000000000000D+00 0.000000000000D+00
    1.976825000000D+04 6.118974685669D-01-0.000000000000D+00-4.000000000000D+00
   -5.907732421875D+03 3.451828956604D+00 9.313225746155D-10 0.000000000000D+00
 1 21  7  3 10 15  0.0 8.177757263184D-05 0.000000000000D+00 3.600000000000D+04
    4.996430664062D+03-9.423227310181D-01-0.000000000000D+00 0.000000000000D+00
    2.061461328125D+04-1.697586059570D+00 0.000000000000D+00 1.000000000000D+00
    1.416072070312D+04 2.805943489075D+00-9.313225746155D-10 0.000000000000D+00
 8 21  7  3 10 15  0.0-5.976390093565D-05 0.000000000000D+00 3.600000000000D+04
   -6.056430664062D+03-1.545331954956D+00 0.000000000000D+00 0.000000000000D+00
    1.060918798828D+04-2.639379501343D+00 0.000000000000D+00 6.000000000000D+00
    2.245284814453D+04 8.306446075439D-01-1.862645149231D-09 0.000000000000D+00
12 21  7  3 10 15  0.0 2.422127872705D-04 2.728484105319D-12 3.600000000000D+04
   -2.181635742188D+02-3.156084060669D+00-1.862645149231D-09 0.000000000000D+00
    1.096797607422D+04 8.265304565430D-02 0.000000000000D+00-1.000000000000D+00
   -2.299829248047D+04 7.063198089600D-02 1.862645149231D-09 0.000000000000D+00
21 21  7  3 10 15  0.0-2.210801467299D-04-2.728484105319D-12 3.600000000000D+04
   -1.421759228516D+04 1.447276115417D+00-1.862645149231D-09 0.000000000000D+00
    6.913679687500D+03-2.334021568298D+00 9.313225746155D-10 4.000000000000D+00
   -2.001576074219D+04-1.837403297424D+00 9.313225746155D-10 0.000000000000D+00
22 21  7  3 10 15  0.0-1.207655295730D-04-9.094947017729D-13 3.600000000000D+04
   -1.477912304688D+04 6.769428253174D-01-1.862645149231D-09 0.000000000000D+00
    1.969215087891D+04-6.923780441284D-01 9.313225746155D-10-3.000000000000D+00
   -6.870766113281D+03-3.442681312561D+00-0.000000000000D+00 0.000000000000D+00
23 21  7  3 10 15  0.0-8.691102266312D-06-0.000000000000D+00 3.600000000000D+04
   -4.415120605469D+03-8.034963607788D-01-9.313225746155D-10 0.000000000000D+00
    2.064484521484D+04 1.803210258484D+00 9.313225746155D-10 3.000000000000D+00
    1.430113476562D+04-2.848046302795D+00-9.313225746155D-10 0.000000000000D+00
24 21  7  3 10 15  0.0 4.895124584436D-05 1.818989403546D-12 3.711000000000D+04
    5.352240722656D+03-1.469535827637D+00 0.000000000000D+00 0.000000000000D+00
    1.148885546875D+04 2.651115417480D+00-0.000000000000D+00 2.000000000000D+00
    2.214249951172D+04-1.022087097168D+00-1.862645149231D-09 0.000000000000D+00
 1 21  7  3 10 45  0.0 8.177943527699D-05 0.000000000000D+00 3.780000000000D+04
    2.737874511719D+03-1.568052291870D+00-0.000000000000D+00 0.000000000000D+00
    1.723865136719D+04-2.006980895996D+00 0.000000000000D+00 1.000000000000D+00
    1.859849072266D+04 2.092928886414D+00-9.313225746155D-10 0.000000000000D+00
 2 21  7  3 10 45  0.0 4.846397787333D-04 1.818989403546D-12 3.780000000000D+04
    1.566892529297D+04 1.048927307129D-01-0.000000000000D+00 0.000000000000D+00
    2.016396728516D+04-1.540670394897D-01-0.000000000000D+00-4.000000000000D+00
    4.532968750000D+02 3.570193290710D+00 0.000000000000D+00 0.000000000000D+00
12 21  7  3 10 45  0.0 2.422174438834D-04 2.728484105319D-12 3.780000000000D+04
   -5.780399414062D+03-2.973754882812D+00-1.862645149231D-09 0.000000000000D+00
    1.151695703125D+04 5.162134170532D-01 9.313225746155D-10-1.000000000000D+00
   -2.198099462891D+04 1.052359580994D+00 9.313225746155D-10 0.000000000000D+00
22 21  7  3 10 45  0.0-1.207673922181D-04-9.094947017729D-13 3.780000000000D+04
   -1.335959667969D+04 8.557348251343D-01-1.862645149231D-09 0.000000000000D+00
    1.769114208984D+04-1.527657508850D+00 9.313225746155D-10-3.000000000000D+00
   -1.272403515625D+04-3.018977165222D+00 0.000000000000D+00 0.000000000000D+00
23 21  7  3 10 45  0.0-8.692964911461D-06-0.000000000000D+00 3.780000000000D+04
   -5.332934082031D+03-2.379531860352D-01-9.313225746155D-10 0.000000000000D+00
    2.337700439453D+04 1.192372322083D+00 9.313225746155D-10 3.000000000000D+00
    8.687554199219D+03-3.348702430725D+00-9.313225746155D-10 0.000000000000D+00
24 21  7  3 10 45  0.0 4.895403981209D-05 1.818989403546D-12 3.780000000000D+04
    3.189820800781D+03-9.276237487793D-01-0.000000000000D+00 0.000000000000D+00
    1.617056396484D+04 2.500659942627D+00 0.000000000000D+00 2.000000000000D+00
    1.947106396484D+04-1.926976203918D+00-9.313225746155D-10 0.000000000000D+00
 2 21  7  3 11 15  0.0 4.846435040236D-04 1.818989403546D-12 3.960000000000D+04
    1.529810351562D+04-5.414705276489D-01-0.000000000000D+00 0.000000000000D+00
    1.930801318359D+04-7.636737823486D-01 0.000000000000D+00-4.000000000000D+00
    6.779510742188D+03 3.413510322571D+00-0.000000000000D+00 0.000000000000D+00
22 21  7  3 11 15  0.0-1.207701861858D-04-9.094947017729D-13 3.960000000000D+04
   -1.185626562500D+04 7.730970382690D-01-1.862645149231D-09 0.000000000000D+00
    1.424017822266D+04-2.283925056458D+00 1.862645149231D-09-3.000000000000D+00
   -1.759942773438D+04-2.363103866577D+00 0.000000000000D+00 0.000000000000D+00
 1 21  7  3 11 15  0.0 8.177943527699D-05 0.000000000000D+00 3.960000000000D+04
   -6.182021484375D+02-2.143322944641D+00 0.000000000000D+00 0.000000000000D+00
    1.355872412109D+04-2.035851478577D+00 0.000000000000D+00 1.000000000000D+00
    2.159809375000D+04 1.218379020691D+00-1.862645149231D-09 0.000000000000D+00
12 21  7  3 11 15  0.0 2.422221004963D-04 2.728484105319D-12 3.960000000000D+04
   -1.075477783203D+04-2.511348724365D+00-1.862645149231D-09 0.000000000000D+00
    1.275600244141D+04 8.332214355469D-01 1.862645149231D-09-1.000000000000D+00
   -1.925887304688D+04 1.952507972717D+00 0.000000000000D+00 0.000000000000D+00
23 21  7  3 11 15  0.0-8.693896234035D-06-0.000000000000D+00 3.960000000000D+04
   -5.376309570312D+03 1.544647216797D-01-9.313225746155D-10 0.000000000000D+00
    2.481762646484D+04 3.830585479736D-01 1.862645149231D-09 3.000000000000D+00
    2.401750488281D+03-3.590131759644D+00-9.313225746155D-10 0.000000000000D+00
24 21  7  3 11 15  0.0 4.895590245724D-05 1.818989403546D-12 3.960000000000D+04
    1.999364257812D+03-4.078435897827D-01-0.000000000000D+00 0.000000000000D+00
    2.031510351562D+04 2.058216094971D+00 9.313225746155D-10 2.000000000000D+00
    1.529475390625D+04-2.683300018311D+00-9.313225746155D-10 0.000000000000D+00
 2 21  7  3 11 45  0.0 4.846472293139D-04 1.818989403546D-12 4.140000000000D+04
    1.366086230469D+04-1.285104751587D+00-0.000000000000D+00 0.000000000000D+00
    1.755376513672D+04-1.142947196960D+00 0.000000000000D+00-4.000000000000D+00
    1.258408007812D+04 2.994404792786D+00-9.313225746155D-10 0.000000000000D+00
